{
  "type": "FeatureCollection",
  "features": [
    {
      "type": "Feature",
      "properties": {
        "norad_id": 30726,
        "name": "FENGYUN 1C DEB",
        "group": "fengyun-1c-debris",
        "lat": -43.91546535581209,
        "lon": -8.046708403319736,
        "alt_km": 852.4684319146163,
        "timestamp": "2025-12-07T07:31:36.576604+00:00",
        "meta_object_name": "FENGYUN 1C DEB",
        "meta_object_id": "1999-025ASL",
        "meta_epoch": "2025-12-06T23:21:28.107936",
        "meta_mean_motion": 14.09264154,
        "meta_eccentricity": 0.00780701,
        "meta_inclination": 99.2677,
        "meta_ra_of_asc_node": 342.5581,
        "meta_arg_of_pericenter": 242.4239,
        "meta_mean_anomaly": 146.2561,
        "meta_ephemeris_type": 0,
        "meta_classification_type": "U",
        "meta_norad_cat_id": 30726,
        "meta_element_set_no": 999,
        "meta_rev_at_epoch": 95902,
        "meta_bstar": 0.0017983686,
        "meta_mean_motion_dot": 3.173e-05,
        "meta_mean_motion_ddot": 0,
        "tle_line1": "1 30726U 99025ASL 25340.97324199  .00003173  00000+0  17984-2 0  9995",
        "tle_line2": "2 30726  99.2677 342.5581 0078070 242.4239 146.2561 14.09264154959022"
      },
      "geometry": {
        "type": "Point",
        "coordinates": [
          -8.046708403319736,
          -43.91546535581209
        ]
      }
    },
    {
      "type": "Feature",
      "properties": {
        "norad_id": 30728,
        "name": "FENGYUN 1C DEB",
        "group": "fengyun-1c-debris",
        "lat": -53.29743307196505,
        "lon": -0.2217215144339267,
        "alt_km": 883.4700901520109,
        "timestamp": "2025-12-07T07:31:36.576614+00:00",
        "meta_object_name": "FENGYUN 1C DEB",
        "meta_object_id": "1999-025ASN",
        "meta_epoch": "2025-12-06T23:20:55.349376",
        "meta_mean_motion": 14.23470966,
        "meta_eccentricity": 0.00995379,
        "meta_inclination": 98.5294,
        "meta_ra_of_asc_node": 347.8339,
        "meta_arg_of_pericenter": 98.5857,
        "meta_mean_anomaly": 262.6615,
        "meta_ephemeris_type": 0,
        "meta_classification_type": "U",
        "meta_norad_cat_id": 30728,
        "meta_element_set_no": 999,
        "meta_rev_at_epoch": 97607,
        "meta_bstar": 0.00012390725,
        "meta_mean_motion_dot": 2.55e-06,
        "meta_mean_motion_ddot": 0,
        "tle_line1": "1 30728U 99025ASN 25340.97286284  .00000255  00000+0  12391-3 0  9995",
        "tle_line2": "2 30728  98.5294 347.8339 0099537  98.5857 262.6615 14.23470966976070"
      },
      "geometry": {
        "type": "Point",
        "coordinates": [
          -0.2217215144339267,
          -53.29743307196505
        ]
      }
    },
    {
      "type": "Feature",
      "properties": {
        "norad_id": 30730,
        "name": "FENGYUN 1C DEB",
        "group": "fengyun-1c-debris",
        "lat": -26.297928961322434,
        "lon": -163.769281817503,
        "alt_km": 856.6924234314838,
        "timestamp": "2025-12-07T07:31:36.576624+00:00",
        "meta_object_name": "FENGYUN 1C DEB",
        "meta_object_id": "1999-025ASQ",
        "meta_epoch": "2025-12-06T14:25:18.344064",
        "meta_mean_motion": 14.25434884,
        "meta_eccentricity": 0.00787021,
        "meta_inclination": 98.618,
        "meta_ra_of_asc_node": 19.8285,
        "meta_arg_of_pericenter": 67.1639,
        "meta_mean_anomaly": 83.5294,
        "meta_ephemeris_type": 0,
        "meta_classification_type": "U",
        "meta_norad_cat_id": 30730,
        "meta_element_set_no": 999,
        "meta_rev_at_epoch": 96918,
        "meta_bstar": 0.0017323816,
        "meta_mean_motion_dot": 4.183e-05,
        "meta_mean_motion_ddot": 0,
        "tle_line1": "1 30730U 99025ASQ 25340.60090676  .00004183  00000+0  17324-2 0  9990",
        "tle_line2": "2 30730  98.6180  19.8285 0078702  67.1639  83.5294 14.25434884969183"
      },
      "geometry": {
        "type": "Point",
        "coordinates": [
          -163.769281817503,
          -26.297928961322434
        ]
      }
    },
    {
      "type": "Feature",
      "properties": {
        "norad_id": 30731,
        "name": "FENGYUN 1C DEB",
        "group": "fengyun-1c-debris",
        "lat": 55.4745592877066,
        "lon": 47.415748446080556,
        "alt_km": 757.0379996300571,
        "timestamp": "2025-12-07T07:31:36.576634+00:00",
        "meta_object_name": "FENGYUN 1C DEB",
        "meta_object_id": "1999-025ASR",
        "meta_epoch": "2025-12-06T11:54:26.121024",
        "meta_mean_motion": 14.41632369,
        "meta_eccentricity": 0.00143329,
        "meta_inclination": 98.8601,
        "meta_ra_of_asc_node": 59.6735,
        "meta_arg_of_pericenter": 263.2957,
        "meta_mean_anomaly": 232.9586,
        "meta_ephemeris_type": 0,
        "meta_classification_type": "U",
        "meta_norad_cat_id": 30731,
        "meta_element_set_no": 999,
        "meta_rev_at_epoch": 97266,
        "meta_bstar": 0.0038244809,
        "meta_mean_motion_dot": 0.00012442,
        "meta_mean_motion_ddot": 0,
        "tle_line1": "1 30731U 99025ASR 25340.49613566  .00012442  00000+0  38245-2 0  9999",
        "tle_line2": "2 30731  98.8601  59.6735 0014332 263.2957 232.9586 14.41632369972664"
      },
      "geometry": {
        "type": "Point",
        "coordinates": [
          47.415748446080556,
          55.4745592877066
        ]
      }
    },
    {
      "type": "Feature",
      "properties": {
        "norad_id": 30732,
        "name": "FENGYUN 1C DEB",
        "group": "fengyun-1c-debris",
        "lat": -2.2100965655042475,
        "lon": -178.74721670026867,
        "alt_km": 816.4561011179867,
        "timestamp": "2025-12-07T07:31:36.576644+00:00",
        "meta_object_name": "FENGYUN 1C DEB",
        "meta_object_id": "1999-025ASS",
        "meta_epoch": "2025-12-06T19:32:06.300384",
        "meta_mean_motion": 14.03888714,
        "meta_eccentricity": 0.0123698,
        "meta_inclination": 98.8044,
        "meta_ra_of_asc_node": 1.1114,
        "meta_arg_of_pericenter": 225.6666,
        "meta_mean_anomaly": 313.5326,
        "meta_ephemeris_type": 0,
        "meta_classification_type": "U",
        "meta_norad_cat_id": 30732,
        "meta_element_set_no": 999,
        "meta_rev_at_epoch": 96108,
        "meta_bstar": 0.00079635286,
        "meta_mean_motion_dot": 1.302e-05,
        "meta_mean_motion_ddot": 0,
        "tle_line1": "1 30732U 99025ASS 25340.81396181  .00001302  00000+0  79635-3 0  9999",
        "tle_line2": "2 30732  98.8044   1.1114 0123698 225.6666 313.5326 14.03888714961081"
      },
      "geometry": {
        "type": "Point",
        "coordinates": [
          -178.74721670026867,
          -2.2100965655042475
        ]
      }
    },
    {
      "type": "Feature",
      "properties": {
        "norad_id": 30735,
        "name": "FENGYUN 1C DEB",
        "group": "fengyun-1c-debris",
        "lat": 22.274734188920963,
        "lon": 48.77172539599006,
        "alt_km": 834.2146881529206,
        "timestamp": "2025-12-07T07:31:36.576654+00:00",
        "meta_object_name": "FENGYUN 1C DEB",
        "meta_object_id": "1999-025ASV",
        "meta_epoch": "2025-12-06T18:31:45.392160",
        "meta_mean_motion": 14.23898101,
        "meta_eccentricity": 0.0059241,
        "meta_inclination": 98.7646,
        "meta_ra_of_asc_node": 51.8551,
        "meta_arg_of_pericenter": 262.2185,
        "meta_mean_anomaly": 225.3437,
        "meta_ephemeris_type": 0,
        "meta_classification_type": "U",
        "meta_norad_cat_id": 30735,
        "meta_element_set_no": 999,
        "meta_rev_at_epoch": 96663,
        "meta_bstar": 0.0028924457,
        "meta_mean_motion_dot": 6.71e-05,
        "meta_mean_motion_ddot": 0,
        "tle_line1": "1 30735U 99025ASV 25340.77205315  .00006710  00000+0  28924-2 0  9997",
        "tle_line2": "2 30735  98.7646  51.8551 0059241 262.2185 225.3437 14.23898101966635"
      },
      "geometry": {
        "type": "Point",
        "coordinates": [
          48.77172539599006,
          22.274734188920963
        ]
      }
    },
    {
      "type": "Feature",
      "properties": {
        "norad_id": 30736,
        "name": "FENGYUN 1C DEB",
        "group": "fengyun-1c-debris",
        "lat": 46.54680617213258,
        "lon": 10.399293112426903,
        "alt_km": 831.4521599268755,
        "timestamp": "2025-12-07T07:31:36.576664+00:00",
        "meta_object_name": "FENGYUN 1C DEB",
        "meta_object_id": "1999-025ASW",
        "meta_epoch": "2025-12-06T16:01:27.387840",
        "meta_mean_motion": 13.61611053,
        "meta_eccentricity": 0.02800041,
        "meta_inclination": 98.7811,
        "meta_ra_of_asc_node": 19.2067,
        "meta_arg_of_pericenter": 70.187,
        "meta_mean_anomaly": 53.7062,
        "meta_ephemeris_type": 0,
        "meta_classification_type": "U",
        "meta_norad_cat_id": 30736,
        "meta_element_set_no": 999,
        "meta_rev_at_epoch": 92770,
        "meta_bstar": 0.0030781788,
        "meta_mean_motion_dot": 3.026e-05,
        "meta_mean_motion_ddot": 0,
        "tle_line1": "1 30736U 99025ASW 25340.66767810  .00003026  00000+0  30782-2 0  9991",
        "tle_line2": "2 30736  98.7811  19.2067 0280004  70.1870  53.7062 13.61611053927702"
      },
      "geometry": {
        "type": "Point",
        "coordinates": [
          10.399293112426903,
          46.54680617213258
        ]
      }
    }
  ]
}